{"type": "FeatureCollection", "features": [ {"type": "Feature", "properties": {"norad_id": 31618, "name": "FENGYUN 1C DEB", "group": "fengyun-1c-debris", "lat": 45.833723280468604, "lon": 111.96251626877667, "alt_km": 759.6911830451618, "timestamp": "2025-12-05T09:41:19.413141+00:00", "meta": {"OBJECT_NAME": "FENGYUN 1C DEB", "OBJECT_ID": "1999-025BZY", "EPOCH": "2025-12-02T15:34:15.484512", "MEAN_MOTION": 14.20997803, "ECCENTRICITY": 0.01574136, "INCLINATION": 99.4427, "RA_OF_ASC_NODE": 118.8846, "ARG_OF_PERICENTER": 354.6274, "MEAN_ANOMALY": 5.3206, "EPHEMERIS_TYPE": 0, "CLASSIFICATION_TYPE": "U", "NORAD_CAT_ID": 31618, "ELEMENT_SET_NO": 999, "REV_AT_EPOCH": 70121, "BSTAR": 0.00034273824, "MEAN_MOTION_DOT": 7.91e-06, "MEAN_MOTION_DDOT": 0}, "tle": {"line1": "1 31618U 99025BZY 25336.64879033  .00000791  00000+0  34274-3 0  9992", "line2": "2 31618  99.4427 118.8846 0157413 354.6274   5.3206 14.20997803701214"}}, "geometry": {"type": "Point", "coordinates": [111.96251626877667, 45.833723280468604]}}, {"type": "Feature", "properties": {"norad_id": 31619, "name": "FENGYUN 1C DEB", "group": "fengyun-1c-debris", "lat": 77.73371048031305, "lon": 38.26195909919751, "alt_km": 661.0898444203767, "timestamp": "2025-12-05T09:41:19.413151+00:00", "meta": {"OBJECT_NAME": "FENGYUN 1C DEB", "OBJECT_ID": "1999-025BZZ", "EPOCH": "2025-12-03T11:56:48.191136", "MEAN_MOTION": 14.84174307, "ECCENTRICITY": 0.00976223, "INCLINATION": 99.0731, "RA_OF_ASC_NODE": 168.7898, "ARG_OF_PERICENTER": 322.9557, "MEAN_ANOMALY": 36.494, "EPHEMERIS_TYPE": 0, "CLASSIFICATION_TYPE": "U", "NORAD_CAT_ID": 31619, "ELEMENT_SET_NO": 999, "REV_AT_EPOCH": 63351, "BSTAR": 0.0064706115, "MEAN_MOTION_DOT": 0.00059262, "MEAN_MOTION_DDOT": 0}, "tle": {"line1": "1 31619U 99025BZZ 25337.49777999  .00059262  00000+0  64706-2 0  9994", "line2": "2 31619  99.0731 168.7898 0097622 322.9557  36.4940 14.84174307633510"}}, "geometry": {"type": "Point", "coordinates": [38.26195909919751, 77.73371048031305]}}, {"type": "Feature", "properties": {"norad_id": 31620, "name": "FENGYUN 1C DEB", "group": "fengyun-1c-debris", "lat": -76.67621009897249, "lon": -158.10857214196986, "alt_km": 790.5909540692046, "timestamp": "2025-12-05T09:41:19.413161+00:00", "meta": {"OBJECT_NAME": "FENGYUN 1C DEB", "OBJECT_ID": "1999-025CAA", "EPOCH": "2025-11-29T12:06:32.784768", "MEAN_MOTION": 14.36942197, "ECCENTRICITY": 0.0021449, "INCLINATION": 98.8876, "RA_OF_ASC_NODE": 57.1565, "ARG_OF_PERICENTER": 84.3152, "MEAN_ANOMALY": 276.0479, "EPHEMERIS_TYPE": 0, "CLASSIFICATION_TYPE": "U", "NORAD_CAT_ID": 31620, "ELEMENT_SET_NO": 999, "REV_AT_EPOCH": 65654, "BSTAR": 0.0022206597, "MEAN_MOTION_DOT": 6.551e-05, "MEAN_MOTION_DDOT": 0}, "tle": {"line1": "1 31620U 99025CAA 25333.50454612  .00006551  00000+0  22207-2 0  9991", "line2": "2 31620  98.8876  57.1565 0021449  84.3152 276.0479 14.36942197656549"}}, "geometry": {"type": "Point", "coordinates": [-158.10857214196986, -76.67621009897249]}}, {"type": "Feature", "properties": {"norad_id": 31622, "name": "FENGYUN 1C DEB", "group": "fengyun-1c-debris", "lat": -64.57766131810587, "lon": -125.06492604335432, "alt_km": 780.9730759488612, "timestamp": "2025-12-05T09:41:19.413171+00:00", "meta": {"OBJECT_NAME": "FENGYUN 1C DEB", "OBJECT_ID": "1999-025CAC", "EPOCH": "2025-12-03T05:04:08.263200", "MEAN_MOTION": 14.37001244, "ECCENTRICITY": 0.0015007, "INCLINATION": 98.8177, "RA_OF_ASC_NODE": 71.7505, "ARG_OF_PERICENTER": 13.3002, "MEAN_ANOMALY": 56.9899, "EPHEMERIS_TYPE": 0, "CLASSIFICATION_TYPE": "U", "NORAD_CAT_ID": 31622, "ELEMENT_SET_NO": 999, "REV_AT_EPOCH": 95635, "BSTAR": 0.0027163, "MEAN_MOTION_DOT": 8.025e-05, "MEAN_MOTION_DDOT": 0}, "tle": {"line1": "1 31622U 99025CAC 25337.21120675  .00008025  00000+0  27163-2 0  9998", "line2": "2 31622  98.8177  71.7505 0015007  13.3002  56.9899 14.37001244956353"}}, "geometry": {"type": "Point", "coordinates": [-125.06492604335432, -64.57766131810587]}}, {"type": "Feature", "properties": {"norad_id": 31623, "name": "FENGYUN 1C DEB", "group": "fengyun-1c-debris", "lat": -0.5469380560935995, "lon": 12.293888601310304, "alt_km": 1085.5858534624977, "timestamp": "2025-12-05T09:41:19.413181+00:00", "meta": {"OBJECT_NAME": "FENGYUN 1C DEB", "OBJECT_ID": "1999-025CAD", "EPOCH": "2025-12-02T20:02:22.350624", "MEAN_MOTION": 13.82580933, "ECCENTRICITY": 0.01951152, "INCLINATION": 97.6304, "RA_OF_ASC_NODE": 190.283, "ARG_OF_PERICENTER": 33.7651, "MEAN_ANOMALY": 327.5758, "EPHEMERIS_TYPE": 0, "CLASSIFICATION_TYPE": "U", "NORAD_CAT_ID": 31623, "ELEMENT_SET_NO": 999, "REV_AT_EPOCH": 57783, "BSTAR": 0.00047153491, "MEAN_MOTION_DOT": 5.61e-06, "MEAN_MOTION_DDOT": 0}, "tle": {"line1": "1 31623U 99025CAD 25336.83498091  .00000561  00000+0  47153-3 0  9995", "line2": "2 31623  97.6304 190.2830 0195115  33.7651 327.5758 13.82580933577835"}}, "geometry": {"type": "Point", "coordinates": [12.293888601310304, -0.5469380560935995]}}, {"type": "Feature", "properties": {"norad_id": 31625, "name": "FENGYUN 1C DEB", "group": "fengyun-1c-debris", "lat": 71.5605676000551, "lon": -87.26059351775994, "alt_km": 660.4287195530524, "timestamp": "2025-12-05T09:41:19.413191+00:00", "meta": {"OBJECT_NAME": "FENGYUN 1C DEB", "OBJECT_ID": "1999-025CAF", "EPOCH": "2025-12-03T11:17:03.153696", "MEAN_MOTION": 14.55374989, "ECCENTRICITY": 0.01498471, "INCLINATION": 98.8069, "RA_OF_ASC_NODE": 62.9923, "ARG_OF_PERICENTER": 43.8947, "MEAN_ANOMALY": 16.2225, "EPHEMERIS_TYPE": 0, "CLASSIFICATION_TYPE": "U", "NORAD_CAT_ID": 31625, "ELEMENT_SET_NO": 999, "REV_AT_EPOCH": 98258, "BSTAR": 0.00022186137, "MEAN_MOTION_DOT": 1.061e-05, "MEAN_MOTION_DDOT": 0}, "tle": {"line1": "1 31625U 99025CAF 25337.47017539  .00001061  00000+0  22186-3 0  9997", "line2": "2 31625  98.8069  62.9923 0149847  43.8947  16.2225 14.55374989982583"}}, "geometry": {"type": "Point", "coordinates": [-87.26059351775994, 71.5605676000551]}}, {"type": "Feature", "properties": {"norad_id": 31627, "name": "FENGYUN 1C DEB", "group": "fengyun-1c-debris", "lat": 37.954190533299595, "lon": -145.9172655646816, "alt_km": 739.8998392817903, "timestamp": "2025-12-05T09:41:19.413201+00:00", "meta": {"OBJECT_NAME": "FENGYUN 1C DEB", "OBJECT_ID": "1999-025CAH", "EPOCH": "2025-11-26T09:13:22.975680", "MEAN_MOTION": 14.35408996, "ECCENTRICITY": 0.00515931, "INCLINATION": 98.5313, "RA_OF_ASC_NODE": 18.4415, "ARG_OF_PERICENTER": 201.9005, "MEAN_ANOMALY": 157.9975, "EPHEMERIS_TYPE": 0, "CLASSIFICATION_TYPE": "U", "NORAD_CAT_ID": 31627, "ELEMENT_SET_NO": 999, "REV_AT_EPOCH": 64532, "BSTAR": 0.0013473839, "MEAN_MOTION_DOT": 3.885e-05, "MEAN_MOTION_DDOT": 0}, "tle": {"line1": "1 31627U 99025CAH 25330.38429370  .00003885  00000+0  13474-2 0  9997", "line2": "2 31627  98.5313  18.4415 0051593 201.9005 157.9975 14.35408996645325"}}, "geometry": {"type": "Point", "coordinates": [-145.9172655646816, 37.954190533299595]}}, {"type": "Feature", "properties": {"norad_id": 31628, "name": "FENGYUN 1C DEB", "group": "fengyun-1c-debris", "lat": -49.303654964978605, "lon": -153.37125426580482, "alt_km": 905.2701549932217, "timestamp": "2025-12-05T09:41:19.413211+00:00", "meta": {"OBJECT_NAME": "FENGYUN 1C DEB", "OBJECT_ID": "1999-025CAJ", "EPOCH": "2025-12-04T07:57:44.419104", "MEAN_MOTION": 13.86765315, "ECCENTRICITY": 0.0169894, "INCLINATION": 102.2698, "RA_OF_ASC_NODE": 190.5697, "ARG_OF_PERICENTER": 240.2521, "MEAN_ANOMALY": 118.1627, "EPHEMERIS_TYPE": 0, "CLASSIFICATION_TYPE": "U", "NORAD_CAT_ID": 31628, "ELEMENT_SET_NO": 999, "REV_AT_EPOCH": 93183, "BSTAR": 0.0044676, "MEAN_MOTION_DOT": 5.772e-05, "MEAN_MOTION_DDOT": 0}, "tle": {"line1": "1 31628U 99025CAJ 25338.33176411  .00005772  00000+0  44676-2 0  9991", "line2": "2 31628 102.2698 190.5697 0169894 240.2521 118.1627 13.86765315931835"}}, "geometry": {"type": "Point", "coordinates": [-153.37125426580482, -49.303654964978605]}}, {"type": "Feature", "properties": {"norad_id": 31629, "name": "FENGYUN 1C DEB", "group": "fengyun-1c-debris", "lat": -5.642117486621309, "lon": -158.48691840819248, "alt_km": 904.2727518565607, "timestamp": "2025-12-05T09:41:19.413222+00:00", "meta": {"OBJECT_NAME": "FENGYUN 1C DEB", "OBJECT_ID": "1999-025CAK", "EPOCH": "2025-12-01T08:03:40.160736", "MEAN_MOTION": 14.14467327, "ECCENTRICITY": 0.01042289, "INCLINATION": 102.1346, "RA_OF_ASC_NODE": 17.2227, "ARG_OF_PERICENTER": 56.4579, "MEAN_ANOMALY": 304.6484, "EPHEMERIS_TYPE": 0, "CLASSIFICATION_TYPE": "U", "NORAD_CAT_ID": 31629, "ELEMENT_SET_NO": 999, "REV_AT_EPOCH": 94285, "BSTAR": 0.0028263297, "MEAN_MOTION_DOT": 5.641e-05, "MEAN_MOTION_DDOT": 0}, "tle": {"line1": "1 31629U 99025CAK 25335.33588149  .00005641  00000+0  28263-2 0  9993", "line2": "2 31629 102.1346  17.2227 0104228  56.4579 304.6484 14.14467327942850"}}, "geometry": {"type": "Point", "coordinates": [-158.48691840819248, -5.642117486621309]}}, {"type": "Feature", "properties": {"norad_id": 31630, "name": "FENGYUN 1C DEB", "group": "fengyun-1c-debris", "lat": -77.5540158284318, "lon": -73.56337590406129, "alt_km": 613.9057464757234, "timestamp": "2025-12-05T09:41:19.413232+00:00", "meta": {"OBJECT_NAME": "FENGYUN 1C DEB", "OBJECT_ID": "1999-025CAL", "EPOCH": "2025-11-28T17:02:46.410432", "MEAN_MOTION": 15.05651013, "ECCENTRICITY": 0.0167781, "INCLINATION": 98.0901, "RA_OF_ASC_NODE": 139.5424, "ARG_OF_PERICENTER": 43.6541, "MEAN_ANOMALY": 317.7815, "EPHEMERIS_TYPE": 0, "CLASSIFICATION_TYPE": "U", "NORAD_CAT_ID": 31630, "ELEMENT_SET_NO": 999, "REV_AT_EPOCH": 98379, "BSTAR": 0.00077583997, "MEAN_MOTION_DOT": 0.00015356, "MEAN_MOTION_DDOT": 0}, "tle": {"line1": "1 31630U 99025CAL 25332.71025938  .00015356  00000+0  77584-3 0  9991", "line2": "2 31630  98.0901 139.5424 0167781  43.6541 317.7815 15.05651013983798"}}, "geometry": {"type": "Point", "coordinates": [-73.56337590406129, -77.5540158284318]}}]}